start=new Date('2021-09-07T00:00:00.000Z').valueOf();
sats=[{"ECCENTRICITY":"0.00015650","GP_ID":"184225510","MEAN_ELEMENT_THEORY":"SGP4","INCLINATION":"53.0457","PERIAPSIS":"421.025","CENTER_NAME":"EARTH","OBJECT_NAME":"STARLINK-2301","MEAN_MOTION_DOT":"-0.01083716","DECAY_DATE":null,"REV_AT_EPOCH":"369","RA_OF_ASC_NODE":"97.7796","MEAN_MOTION":"15.48167281","EPOCH":"2021-09-06T22:00:01.999584","SEMIMAJOR_AXIS":"6800.225","LAUNCH_DATE":"2021-03-24","NORAD_CAT_ID":"48021","ARG_OF_PERICENTER":"55.2492","TLE_LINE2":"2 48021  53.0457  97.7796 0001565  55.2492 112.5950 15.48167281  3694","ELEMENT_SET_NO":"999","COUNTRY_CODE":"US","APOAPSIS":"423.154","EPHEMERIS_TYPE":"0","TLE_LINE1":"1 48021U 21024AW  21249.91668981 -.01083716  00000-0 -22395-1 0  9990","FILE":"3109923","BSTAR":"-0.02239500000000","MEAN_ANOMALY":"112.5950","SITE":"AFETR","OBJECT_ID":"2021-024AW","CLASSIFICATION_TYPE":"U","PERIOD":"93.013","REF_FRAME":"TEME","MEAN_MOTION_DDOT":"0.0000000000000","RCS_SIZE":"LARGE","OBJECT_TYPE":"PAYLOAD","TIME_SYSTEM":"UTC"},{"PERIAPSIS":"545.718","CENTER_NAME":"EARTH","OBJECT_NAME":"STARLINK-2298","MEAN_MOTION_DOT":"-0.00070652","ECCENTRICITY":"0.00020790","GP_ID":"184225762","INCLINATION":"53.0560","MEAN_ELEMENT_THEORY":"SGP4","LAUNCH_DATE":"2021-03-24","DECAY_DATE":null,"EPOCH":"2021-09-06T22:00:01.999584","SEMIMAJOR_AXIS":"6925.293","REV_AT_EPOCH":"359","RA_OF_ASC_NODE":"155.2938","MEAN_MOTION":"15.06418280","APOAPSIS":"548.597","COUNTRY_CODE":"US","TLE_LINE1":"1 48022U 21024AX  21249.91668981 -.00070652  00000-0 -47690-2 0  9991","EPHEMERIS_TYPE":"0","NORAD_CAT_ID":"48022","TLE_LINE2":"2 48022  53.0560 155.2938 0002079  72.1095  12.9045 15.06418280  3595","ARG_OF_PERICENTER":"72.1095","ELEMENT_SET_NO":"999","REF_FRAME":"TEME","CLASSIFICATION_TYPE":"U","PERIOD":"95.591","OBJECT_TYPE":"PAYLOAD","TIME_SYSTEM":"UTC","MEAN_MOTION_DDOT":"0.0000000000000","RCS_SIZE":"LARGE","FILE":"3109923","SITE":"AFETR","OBJECT_ID":"2021-024AX","BSTAR":"-0.00476900000000","MEAN_ANOMALY":"12.9045"},{"NORAD_CAT_ID":"48023","TLE_LINE2":"2 48023  53.0541 155.2812 0001693  71.4320 288.3927 15.06397835  3590","ARG_OF_PERICENTER":"71.4320","ELEMENT_SET_NO":"999","APOAPSIS":"548.393","COUNTRY_CODE":"US","TLE_LINE1":"1 48023U 21024AY  21249.91668981 -.00030269  00000-0 -20219-2 0  9990","EPHEMERIS_TYPE":"0","FILE":"3109923","SITE":"AFETR","OBJECT_ID":"2021-024AY","BSTAR":"-0.00202190000000","MEAN_ANOMALY":"288.3927","REF_FRAME":"TEME","CLASSIFICATION_TYPE":"U","PERIOD":"95.592","TIME_SYSTEM":"UTC","OBJECT_TYPE":"PAYLOAD","RCS_SIZE":"LARGE","MEAN_MOTION_DDOT":"0.0000000000000","ECCENTRICITY":"0.00016930","GP_ID":"184226512","INCLINATION":"53.0541","MEAN_ELEMENT_THEORY":"SGP4","CENTER_NAME":"EARTH","PERIAPSIS":"546.048","OBJECT_NAME":"STARLINK-2292","MEAN_MOTION_DOT":"-0.00030269","DECAY_DATE":null,"EPOCH":"2021-09-06T22:00:01.999584","SEMIMAJOR_AXIS":"6925.355","RA_OF_ASC_NODE":"155.2812","REV_AT_EPOCH":"359","MEAN_MOTION":"15.06397835","LAUNCH_DATE":"2021-03-24"},{"COUNTRY_CODE":"US","APOAPSIS":"352.599","EPHEMERIS_TYPE":"0","TLE_LINE1":"1 48024U 21024AZ  21249.91668981  .00027852  00000-0  20215-3 0  9990","NORAD_CAT_ID":"48024","TLE_LINE2":"2 48024  53.0443  96.6891 0004202   8.7115 280.6215 15.73195781  3697","ARG_OF_PERICENTER":"8.7115","ELEMENT_SET_NO":"999","PERIOD":"91.533","CLASSIFICATION_TYPE":"U","REF_FRAME":"TEME","MEAN_MOTION_DDOT":"0.0000000000000","RCS_SIZE":"LARGE","TIME_SYSTEM":"UTC","OBJECT_TYPE":"PAYLOAD","FILE":"3109923","BSTAR":"0.00020215000000","MEAN_ANOMALY":"280.6215","SITE":"AFETR","OBJECT_ID":"2021-024AZ","PERIAPSIS":"346.945","CENTER_NAME":"EARTH","OBJECT_NAME":"STARLINK-2302","MEAN_MOTION_DOT":"0.00027852","ECCENTRICITY":"0.00042020","GP_ID":"184225260","MEAN_ELEMENT_THEORY":"SGP4","INCLINATION":"53.0443","LAUNCH_DATE":"2021-03-24","DECAY_DATE":null,"RA_OF_ASC_NODE":"96.6891","REV_AT_EPOCH":"369","MEAN_MOTION":"15.73195781","EPOCH":"2021-09-06T22:00:01.999584","SEMIMAJOR_AXIS":"6727.907"},{"NORAD_CAT_ID":"48025","ELEMENT_SET_NO":"999","TLE_LINE2":"2 48025  53.0441  96.6836 0004098   4.8403 285.1417 15.73218373  3692","ARG_OF_PERICENTER":"4.8403","APOAPSIS":"352.465","COUNTRY_CODE":"US","TLE_LINE1":"1 48025U 21024BA  21249.91668981 -.00064592  00000-0 -45860-3 0  9998","EPHEMERIS_TYPE":"0","FILE":"3109923","OBJECT_ID":"2021-024BA","SITE":"AFETR","MEAN_ANOMALY":"285.1417","BSTAR":"-0.00045860000000","REF_FRAME":"TEME","PERIOD":"91.532","CLASSIFICATION_TYPE":"U","TIME_SYSTEM":"UTC","OBJECT_TYPE":"PAYLOAD","RCS_SIZE":"LARGE","MEAN_MOTION_DDOT":"0.0000000000000","GP_ID":"184225011","ECCENTRICITY":"0.00040980","INCLINATION":"53.0441","MEAN_ELEMENT_THEORY":"SGP4","OBJECT_NAME":"STARLINK-2318","CENTER_NAME":"EARTH","PERIAPSIS":"346.951","MEAN_MOTION_DOT":"-0.00064592","DECAY_DATE":null,"SEMIMAJOR_AXIS":"6727.843","EPOCH":"2021-09-06T22:00:01.999584","MEAN_MOTION":"15.73218373","REV_AT_EPOCH":"369","RA_OF_ASC_NODE":"96.6836","LAUNCH_DATE":"2021-03-24"},{"OBJECT_TYPE":"PAYLOAD","TIME_SYSTEM":"UTC","MEAN_MOTION_DDOT":"0.0000000000000","RCS_SIZE":"LARGE","REF_FRAME":"TEME","CLASSIFICATION_TYPE":"U","PERIOD":"95.695","OBJECT_ID":"2021-024BB","SITE":"AFETR","MEAN_ANOMALY":"149.1093","BSTAR":"-0.00189080000000","FILE":"3109923","TLE_LINE1":"1 48026U 21024BB  21249.91668981 -.00027135  00000-0 -18908-2 0  9993","EPHEMERIS_TYPE":"0","APOAPSIS":"553.676","COUNTRY_CODE":"US","ELEMENT_SET_NO":"999","TLE_LINE2":"2 48026  53.0507 160.3558 0002136  69.2932 149.1093 15.04775772  3581","ARG_OF_PERICENTER":"69.2932","NORAD_CAT_ID":"48026","LAUNCH_DATE":"2021-03-24","SEMIMAJOR_AXIS":"6930.331","EPOCH":"2021-09-06T22:00:01.999584","MEAN_MOTION":"15.04775772","REV_AT_EPOCH":"358","RA_OF_ASC_NODE":"160.3558","DECAY_DATE":null,"MEAN_MOTION_DOT":"-0.00027135","OBJECT_NAME":"STARLINK-2278","PERIAPSIS":"550.716","CENTER_NAME":"EARTH","INCLINATION":"53.0507","MEAN_ELEMENT_THEORY":"SGP4","GP_ID":"184226262","ECCENTRICITY":"0.00021360"},{"DECAY_DATE":null,"SEMIMAJOR_AXIS":"6925.354","EPOCH":"2021-09-06T22:00:01.999584","MEAN_MOTION":"15.06398322","RA_OF_ASC_NODE":"135.2856","REV_AT_EPOCH":"359","LAUNCH_DATE":"2021-03-24","GP_ID":"184226013","ECCENTRICITY":"0.00017960","INCLINATION":"53.0542","MEAN_ELEMENT_THEORY":"SGP4","OBJECT_NAME":"STARLINK-2300","CENTER_NAME":"EARTH","PERIAPSIS":"545.975","MEAN_MOTION_DOT":"-0.00022926","FILE":"3109923","OBJECT_ID":"2021-024BC","SITE":"AFETR","MEAN_ANOMALY":"264.4997","BSTAR":"-0.00152520000000","REF_FRAME":"TEME","PERIOD":"95.592","CLASSIFICATION_TYPE":"U","OBJECT_TYPE":"PAYLOAD","TIME_SYSTEM":"UTC","MEAN_MOTION_DDOT":"0.0000000000000","RCS_SIZE":"LARGE","NORAD_CAT_ID":"48027","ELEMENT_SET_NO":"999","TLE_LINE2":"2 48027  53.0542 135.2856 0001796  65.3378 264.4997 15.06398322  3594","ARG_OF_PERICENTER":"65.3378","APOAPSIS":"548.462","COUNTRY_CODE":"US","EPHEMERIS_TYPE":"0","TLE_LINE1":"1 48027U 21024BC  21249.91668981 -.00022926  00000-0 -15252-2 0  9996"},{"LAUNCH_DATE":"2021-03-24","REV_AT_EPOCH":"369","RA_OF_ASC_NODE":"96.7461","MEAN_MOTION":"15.66910713","EPOCH":"2021-09-06T22:00:01.999584","SEMIMAJOR_AXIS":"6745.886","DECAY_DATE":null,"MEAN_MOTION_DOT":"-0.00965067","PERIAPSIS":"366.834","CENTER_NAME":"EARTH","OBJECT_NAME":"STARLINK-2264","MEAN_ELEMENT_THEORY":"SGP4","INCLINATION":"53.0443","ECCENTRICITY":"0.00013590","GP_ID":"184224761","MEAN_MOTION_DDOT":"0.0000000000000","RCS_SIZE":"LARGE","OBJECT_TYPE":"PAYLOAD","TIME_SYSTEM":"UTC","CLASSIFICATION_TYPE":"U","PERIOD":"91.901","REF_FRAME":"TEME","BSTAR":"-0.00985640000000","MEAN_ANOMALY":"197.3812","SITE":"AFETR","OBJECT_ID":"2021-024BD","FILE":"3109923","TLE_LINE1":"1 48028U 21024BD  21249.91668981 -.00965067  00000-0 -98564-2 0  9996","EPHEMERIS_TYPE":"0","COUNTRY_CODE":"US","APOAPSIS":"368.668","TLE_LINE2":"2 48028  53.0443  96.7461 0001359  59.5110 197.3812 15.66910713  3693","ARG_OF_PERICENTER":"59.5110","ELEMENT_SET_NO":"999","NORAD_CAT_ID":"48028"},{"MEAN_MOTION":"15.06406157","RA_OF_ASC_NODE":"155.2915","REV_AT_EPOCH":"359","SEMIMAJOR_AXIS":"6925.330","EPOCH":"2021-09-06T22:00:01.999584","DECAY_DATE":null,"LAUNCH_DATE":"2021-03-24","MEAN_ELEMENT_THEORY":"SGP4","INCLINATION":"53.0559","GP_ID":"184225511","ECCENTRICITY":"0.00021310","MEAN_MOTION_DOT":"-0.00029870","OBJECT_NAME":"STARLINK-2299","PERIAPSIS":"545.719","CENTER_NAME":"EARTH","MEAN_ANOMALY":"54.3884","BSTAR":"-0.00199440000000","OBJECT_ID":"2021-024BE","SITE":"AFETR","FILE":"3109923","RCS_SIZE":"LARGE","MEAN_MOTION_DDOT":"0.0000000000000","TIME_SYSTEM":"UTC","OBJECT_TYPE":"PAYLOAD","PERIOD":"95.592","CLASSIFICATION_TYPE":"U","REF_FRAME":"TEME","ELEMENT_SET_NO":"999","TLE_LINE2":"2 48029  53.0559 155.2915 0002131  65.4650  54.3884 15.06406157  3597","ARG_OF_PERICENTER":"65.4650","NORAD_CAT_ID":"48029","TLE_LINE1":"1 48029U 21024BE  21249.91668981 -.00029870  00000-0 -19944-2 0  9995","EPHEMERIS_TYPE":"0","COUNTRY_CODE":"US","APOAPSIS":"548.670"},{"COUNTRY_CODE":"US","APOAPSIS":"548.382","EPHEMERIS_TYPE":"0","TLE_LINE1":"1 48030U 21024BF  21249.91668981 -.00031352  00000-0 -20940-2 0  9993","NORAD_CAT_ID":"48030","ELEMENT_SET_NO":"999","TLE_LINE2":"2 48030  53.0540 160.2804 0001776  81.5513 250.8254 15.06420218  3580","ARG_OF_PERICENTER":"81.5513","PERIOD":"95.591","CLASSIFICATION_TYPE":"U","REF_FRAME":"TEME","RCS_SIZE":"LARGE","MEAN_MOTION_DDOT":"0.0000000000000","OBJECT_TYPE":"PAYLOAD","TIME_SYSTEM":"UTC","FILE":"3109923","MEAN_ANOMALY":"250.8254","BSTAR":"-0.00209400000000","OBJECT_ID":"2021-024BF","SITE":"AFETR","OBJECT_NAME":"STARLINK-2268","PERIAPSIS":"545.922","CENTER_NAME":"EARTH","MEAN_MOTION_DOT":"-0.00031352","GP_ID":"184225763","ECCENTRICITY":"0.00017760","MEAN_ELEMENT_THEORY":"SGP4","INCLINATION":"53.0540","LAUNCH_DATE":"2021-03-24","DECAY_DATE":null,"MEAN_MOTION":"15.06420218","RA_OF_ASC_NODE":"160.2804","REV_AT_EPOCH":"358","SEMIMAJOR_AXIS":"6925.287","EPOCH":"2021-09-06T22:00:01.999584"}];
